<?xml version="1.0" encoding="UTF-8"?>
<gpx version="1.1" creator="Middle Palisade route card" xmlns="http://www.topografix.com/GPX/1/1">
  <metadata><name>Middle Palisade East Face</name></metadata>
  <wpt lat="37.125240" lon="-118.437610"><ele>2374</ele><name>P Trailhead</name><cmt>Day-use lot, road end</cmt><desc>Day-use lot, road end</desc><sym>Flag, Blue</sym></wpt>
  <wpt lat="37.109810" lon="-118.449600"><ele>2622</ele><name>X Creek xing</name><cmt>Rock-hop South Fork</cmt><desc>Rock-hop South Fork</desc><sym>Flag, Blue</sym></wpt>
  <wpt lat="37.091730" lon="-118.457410"><ele>3120</ele><name>B Brainerd L</name><cmt>Trail ends. Go W side.</cmt><desc>Trail ends. Go W side.</desc><sym>Flag, Blue</sym></wpt>
  <wpt lat="37.088800" lon="-118.461300"><ele>3290</ele><name>F Finger outlt</name><cmt>Hop outlet to W side</cmt><desc>Hop outlet to W side</desc><sym>Flag, Blue</sym></wpt>
  <wpt lat="37.080300" lon="-118.461050"><ele>3412</ele><name>T Tarn WATER</name><cmt>Last easy water</cmt><desc>Last easy water</desc><sym>Flag, Blue</sym></wpt>
  <wpt lat="37.073100" lon="-118.466950"><ele>3869</ele><name>M Hump-base</name><cmt>Helmets on. Go up-RIGHT</cmt><desc>Helmets on. Go up-RIGHT</desc><sym>Flag, Blue</sym></wpt>
  <wpt lat="37.073250" lon="-118.467300"><ele>3903</ele><name>R Red chute</name><cmt>Climb red gully, loose</cmt><desc>Climb red gully, loose</desc><sym>Flag, Blue</sym></wpt>
  <wpt lat="37.072550" lon="-118.468060"><ele>3995</ele><name>G Tower</name><cmt>Tower on your left</cmt><desc>Tower on your left</desc><sym>Flag, Blue</sym></wpt>
  <wpt lat="37.071520" lon="-118.468520"><ele>4118</ele><name>C Main chute</name><cmt>Stay in chute, keep left</cmt><desc>Stay in chute, keep left</desc><sym>Flag, Blue</sym></wpt>
  <wpt lat="37.071000" lon="-118.469150"><ele>4218</ele><name>N Exit LEFT</name><cmt>Leave chute LEFT</cmt><desc>Leave chute LEFT</desc><sym>Flag, Blue</sym></wpt>
  <wpt lat="37.070550" lon="-118.469390"><ele>4278</ele><name>S SUMMIT</name><cmt>Finish from SOUTH side</cmt><desc>Finish from SOUTH side</desc><sym>Flag, Blue</sym></wpt>
  <trk><name>Middle Pal East Face</name><trkseg>
    <trkpt lat="37.125240" lon="-118.437610"><ele>2374.5</ele></trkpt>
    <trkpt lat="37.125160" lon="-118.437773"><ele>2375.4</ele></trkpt>
    <trkpt lat="37.125046" lon="-118.438098"><ele>2376.4</ele></trkpt>
    <trkpt lat="37.124954" lon="-118.438390"><ele>2378.7</ele></trkpt>
    <trkpt lat="37.124862" lon="-118.438683"><ele>2379.5</ele></trkpt>
    <trkpt lat="37.124753" lon="-118.438986"><ele>2380.1</ele></trkpt>
    <trkpt lat="37.124645" lon="-118.439290"><ele>2381.3</ele></trkpt>
    <trkpt lat="37.124565" lon="-118.439482"><ele>2381.2</ele></trkpt>
    <trkpt lat="37.124445" lon="-118.439710"><ele>2382.0</ele></trkpt>
    <trkpt lat="37.124435" lon="-118.439806"><ele>2382.8</ele></trkpt>
    <trkpt lat="37.124513" lon="-118.440014"><ele>2385.1</ele></trkpt>
    <trkpt lat="37.124552" lon="-118.440176"><ele>2386.4</ele></trkpt>
    <trkpt lat="37.124511" lon="-118.440383"><ele>2384.7</ele></trkpt>
    <trkpt lat="37.124503" lon="-118.440517"><ele>2385.3</ele></trkpt>
    <trkpt lat="37.124540" lon="-118.440727"><ele>2387.6</ele></trkpt>
    <trkpt lat="37.124499" lon="-118.441029"><ele>2389.6</ele></trkpt>
    <trkpt lat="37.124630" lon="-118.441170"><ele>2393.4</ele></trkpt>
    <trkpt lat="37.124730" lon="-118.441026"><ele>2397.6</ele></trkpt>
    <trkpt lat="37.124782" lon="-118.441082"><ele>2401.5</ele></trkpt>
    <trkpt lat="37.124773" lon="-118.441348"><ele>2403.9</ele></trkpt>
    <trkpt lat="37.124743" lon="-118.441613"><ele>2404.1</ele></trkpt>
    <trkpt lat="37.124655" lon="-118.441778"><ele>2407.2</ele></trkpt>
    <trkpt lat="37.124604" lon="-118.441819"><ele>2407.1</ele></trkpt>
    <trkpt lat="37.124498" lon="-118.441895"><ele>2408.3</ele></trkpt>
    <trkpt lat="37.124403" lon="-118.442026"><ele>2409.5</ele></trkpt>
    <trkpt lat="37.124386" lon="-118.442065"><ele>2410.2</ele></trkpt>
    <trkpt lat="37.124319" lon="-118.442233"><ele>2412.9</ele></trkpt>
    <trkpt lat="37.124264" lon="-118.442316"><ele>2413.8</ele></trkpt>
    <trkpt lat="37.124182" lon="-118.442428"><ele>2414.3</ele></trkpt>
    <trkpt lat="37.123976" lon="-118.442680"><ele>2418.0</ele></trkpt>
    <trkpt lat="37.123845" lon="-118.442817"><ele>2419.8</ele></trkpt>
    <trkpt lat="37.123704" lon="-118.442986"><ele>2422.2</ele></trkpt>
    <trkpt lat="37.123672" lon="-118.443016"><ele>2422.4</ele></trkpt>
    <trkpt lat="37.123583" lon="-118.443096"><ele>2423.9</ele></trkpt>
    <trkpt lat="37.123533" lon="-118.443117"><ele>2424.3</ele></trkpt>
    <trkpt lat="37.123339" lon="-118.443186"><ele>2426.1</ele></trkpt>
    <trkpt lat="37.123145" lon="-118.443256"><ele>2428.1</ele></trkpt>
    <trkpt lat="37.123028" lon="-118.443296"><ele>2428.9</ele></trkpt>
    <trkpt lat="37.122982" lon="-118.443329"><ele>2429.6</ele></trkpt>
    <trkpt lat="37.122807" lon="-118.443605"><ele>2431.5</ele></trkpt>
    <trkpt lat="37.122766" lon="-118.443655"><ele>2432.1</ele></trkpt>
    <trkpt lat="37.122718" lon="-118.443724"><ele>2432.1</ele></trkpt>
    <trkpt lat="37.122701" lon="-118.443770"><ele>2433.1</ele></trkpt>
    <trkpt lat="37.122676" lon="-118.443853"><ele>2433.5</ele></trkpt>
    <trkpt lat="37.122480" lon="-118.443988"><ele>2433.3</ele></trkpt>
    <trkpt lat="37.122339" lon="-118.444074"><ele>2435.3</ele></trkpt>
    <trkpt lat="37.122112" lon="-118.444161"><ele>2438.1</ele></trkpt>
    <trkpt lat="37.122064" lon="-118.444175"><ele>2439.2</ele></trkpt>
    <trkpt lat="37.121996" lon="-118.444169"><ele>2439.9</ele></trkpt>
    <trkpt lat="37.121932" lon="-118.444167"><ele>2440.8</ele></trkpt>
    <trkpt lat="37.121689" lon="-118.444136"><ele>2442.9</ele></trkpt>
    <trkpt lat="37.121602" lon="-118.444134"><ele>2443.8</ele></trkpt>
    <trkpt lat="37.121457" lon="-118.444151"><ele>2445.5</ele></trkpt>
    <trkpt lat="37.121300" lon="-118.444171"><ele>2446.6</ele></trkpt>
    <trkpt lat="37.121077" lon="-118.444193"><ele>2449.2</ele></trkpt>
    <trkpt lat="37.120853" lon="-118.444215"><ele>2450.2</ele></trkpt>
    <trkpt lat="37.120510" lon="-118.444298"><ele>2454.9</ele></trkpt>
    <trkpt lat="37.120298" lon="-118.444314"><ele>2456.9</ele></trkpt>
    <trkpt lat="37.120086" lon="-118.444330"><ele>2459.2</ele></trkpt>
    <trkpt lat="37.119759" lon="-118.444432"><ele>2463.0</ele></trkpt>
    <trkpt lat="37.119573" lon="-118.444510"><ele>2465.7</ele></trkpt>
    <trkpt lat="37.119387" lon="-118.444588"><ele>2468.0</ele></trkpt>
    <trkpt lat="37.119113" lon="-118.444754"><ele>2472.6</ele></trkpt>
    <trkpt lat="37.118803" lon="-118.444864"><ele>2475.2</ele></trkpt>
    <trkpt lat="37.118725" lon="-118.444906"><ele>2476.6</ele></trkpt>
    <trkpt lat="37.118664" lon="-118.444938"><ele>2477.2</ele></trkpt>
    <trkpt lat="37.118452" lon="-118.445216"><ele>2481.9</ele></trkpt>
    <trkpt lat="37.118306" lon="-118.445213"><ele>2483.3</ele></trkpt>
    <trkpt lat="37.118252" lon="-118.445256"><ele>2485.1</ele></trkpt>
    <trkpt lat="37.118359" lon="-118.445428"><ele>2488.4</ele></trkpt>
    <trkpt lat="37.118282" lon="-118.445462"><ele>2489.4</ele></trkpt>
    <trkpt lat="37.118164" lon="-118.445431"><ele>2490.3</ele></trkpt>
    <trkpt lat="37.117966" lon="-118.445270"><ele>2491.6</ele></trkpt>
    <trkpt lat="37.117769" lon="-118.445108"><ele>2492.6</ele></trkpt>
    <trkpt lat="37.117655" lon="-118.445133"><ele>2493.3</ele></trkpt>
    <trkpt lat="37.117592" lon="-118.445100"><ele>2493.5</ele></trkpt>
    <trkpt lat="37.117455" lon="-118.445163"><ele>2494.7</ele></trkpt>
    <trkpt lat="37.117317" lon="-118.445284"><ele>2497.0</ele></trkpt>
    <trkpt lat="37.117191" lon="-118.445268"><ele>2498.0</ele></trkpt>
    <trkpt lat="37.116983" lon="-118.445513"><ele>2501.2</ele></trkpt>
    <trkpt lat="37.116690" lon="-118.445616"><ele>2502.8</ele></trkpt>
    <trkpt lat="37.116634" lon="-118.445692"><ele>2504.1</ele></trkpt>
    <trkpt lat="37.116346" lon="-118.445881"><ele>2507.5</ele></trkpt>
    <trkpt lat="37.116264" lon="-118.445991"><ele>2509.6</ele></trkpt>
    <trkpt lat="37.116059" lon="-118.446061"><ele>2511.5</ele></trkpt>
    <trkpt lat="37.116055" lon="-118.446236"><ele>2514.3</ele></trkpt>
    <trkpt lat="37.115880" lon="-118.446292"><ele>2516.5</ele></trkpt>
    <trkpt lat="37.115705" lon="-118.446348"><ele>2518.8</ele></trkpt>
    <trkpt lat="37.115510" lon="-118.446474"><ele>2521.6</ele></trkpt>
    <trkpt lat="37.115428" lon="-118.446487"><ele>2522.5</ele></trkpt>
    <trkpt lat="37.115366" lon="-118.446536"><ele>2523.7</ele></trkpt>
    <trkpt lat="37.115415" lon="-118.446633"><ele>2525.2</ele></trkpt>
    <trkpt lat="37.115385" lon="-118.446661"><ele>2526.0</ele></trkpt>
    <trkpt lat="37.115166" lon="-118.446684"><ele>2527.6</ele></trkpt>
    <trkpt lat="37.114948" lon="-118.446707"><ele>2529.3</ele></trkpt>
    <trkpt lat="37.114729" lon="-118.446729"><ele>2531.5</ele></trkpt>
    <trkpt lat="37.114511" lon="-118.446752"><ele>2533.5</ele></trkpt>
    <trkpt lat="37.114455" lon="-118.446786"><ele>2534.4</ele></trkpt>
    <trkpt lat="37.114385" lon="-118.446848"><ele>2535.5</ele></trkpt>
    <trkpt lat="37.114328" lon="-118.446909"><ele>2536.1</ele></trkpt>
    <trkpt lat="37.114285" lon="-118.446971"><ele>2537.2</ele></trkpt>
    <trkpt lat="37.114257" lon="-118.447001"><ele>2537.7</ele></trkpt>
    <trkpt lat="37.114239" lon="-118.447026"><ele>2538.0</ele></trkpt>
    <trkpt lat="37.114215" lon="-118.447045"><ele>2538.3</ele></trkpt>
    <trkpt lat="37.114199" lon="-118.447104"><ele>2539.2</ele></trkpt>
    <trkpt lat="37.114171" lon="-118.447131"><ele>2539.5</ele></trkpt>
    <trkpt lat="37.114152" lon="-118.447172"><ele>2540.3</ele></trkpt>
    <trkpt lat="37.114174" lon="-118.447215"><ele>2540.9</ele></trkpt>
    <trkpt lat="37.114180" lon="-118.447242"><ele>2541.3</ele></trkpt>
    <trkpt lat="37.114165" lon="-118.447288"><ele>2542.0</ele></trkpt>
    <trkpt lat="37.114104" lon="-118.447426"><ele>2544.3</ele></trkpt>
    <trkpt lat="37.114053" lon="-118.447482"><ele>2544.8</ele></trkpt>
    <trkpt lat="37.114000" lon="-118.447548"><ele>2545.6</ele></trkpt>
    <trkpt lat="37.113950" lon="-118.447650"><ele>2546.9</ele></trkpt>
    <trkpt lat="37.113916" lon="-118.447745"><ele>2547.3</ele></trkpt>
    <trkpt lat="37.113860" lon="-118.447823"><ele>2548.2</ele></trkpt>
    <trkpt lat="37.113816" lon="-118.447840"><ele>2548.8</ele></trkpt>
    <trkpt lat="37.113788" lon="-118.447914"><ele>2549.6</ele></trkpt>
    <trkpt lat="37.113741" lon="-118.447957"><ele>2550.4</ele></trkpt>
    <trkpt lat="37.113714" lon="-118.447959"><ele>2550.9</ele></trkpt>
    <trkpt lat="37.113697" lon="-118.447993"><ele>2551.3</ele></trkpt>
    <trkpt lat="37.113685" lon="-118.448060"><ele>2552.0</ele></trkpt>
    <trkpt lat="37.113670" lon="-118.448099"><ele>2552.7</ele></trkpt>
    <trkpt lat="37.113603" lon="-118.448139"><ele>2554.2</ele></trkpt>
    <trkpt lat="37.113430" lon="-118.448210"><ele>2556.4</ele></trkpt>
    <trkpt lat="37.113371" lon="-118.448220"><ele>2556.9</ele></trkpt>
    <trkpt lat="37.113151" lon="-118.448226"><ele>2560.6</ele></trkpt>
    <trkpt lat="37.113062" lon="-118.448241"><ele>2561.8</ele></trkpt>
    <trkpt lat="37.112999" lon="-118.448300"><ele>2562.8</ele></trkpt>
    <trkpt lat="37.112954" lon="-118.448350"><ele>2563.7</ele></trkpt>
    <trkpt lat="37.112933" lon="-118.448352"><ele>2563.9</ele></trkpt>
    <trkpt lat="37.112914" lon="-118.448348"><ele>2564.1</ele></trkpt>
    <trkpt lat="37.112901" lon="-118.448331"><ele>2564.0</ele></trkpt>
    <trkpt lat="37.112882" lon="-118.448327"><ele>2564.3</ele></trkpt>
    <trkpt lat="37.112858" lon="-118.448328"><ele>2565.0</ele></trkpt>
    <trkpt lat="37.112826" lon="-118.448364"><ele>2565.7</ele></trkpt>
    <trkpt lat="37.112792" lon="-118.448371"><ele>2566.8</ele></trkpt>
    <trkpt lat="37.112717" lon="-118.448358"><ele>2568.2</ele></trkpt>
    <trkpt lat="37.112624" lon="-118.448358"><ele>2569.6</ele></trkpt>
    <trkpt lat="37.112591" lon="-118.448379"><ele>2570.3</ele></trkpt>
    <trkpt lat="37.112560" lon="-118.448434"><ele>2571.1</ele></trkpt>
    <trkpt lat="37.112550" lon="-118.448480"><ele>2571.1</ele></trkpt>
    <trkpt lat="37.112516" lon="-118.448525"><ele>2571.8</ele></trkpt>
    <trkpt lat="37.112484" lon="-118.448543"><ele>2572.4</ele></trkpt>
    <trkpt lat="37.112421" lon="-118.448624"><ele>2573.7</ele></trkpt>
    <trkpt lat="37.112401" lon="-118.448657"><ele>2574.2</ele></trkpt>
    <trkpt lat="37.112354" lon="-118.448697"><ele>2575.3</ele></trkpt>
    <trkpt lat="37.112122" lon="-118.448729"><ele>2580.0</ele></trkpt>
    <trkpt lat="37.111985" lon="-118.448757"><ele>2582.4</ele></trkpt>
    <trkpt lat="37.111886" lon="-118.448822"><ele>2582.6</ele></trkpt>
    <trkpt lat="37.111811" lon="-118.448885"><ele>2584.5</ele></trkpt>
    <trkpt lat="37.111764" lon="-118.448940"><ele>2586.2</ele></trkpt>
    <trkpt lat="37.111665" lon="-118.448914"><ele>2588.1</ele></trkpt>
    <trkpt lat="37.111594" lon="-118.448863"><ele>2589.3</ele></trkpt>
    <trkpt lat="37.111564" lon="-118.448859"><ele>2589.9</ele></trkpt>
    <trkpt lat="37.111535" lon="-118.448899"><ele>2590.8</ele></trkpt>
    <trkpt lat="37.111511" lon="-118.448917"><ele>2591.2</ele></trkpt>
    <trkpt lat="37.111458" lon="-118.448901"><ele>2592.4</ele></trkpt>
    <trkpt lat="37.111399" lon="-118.448941"><ele>2594.6</ele></trkpt>
    <trkpt lat="37.111336" lon="-118.448958"><ele>2595.5</ele></trkpt>
    <trkpt lat="37.111306" lon="-118.449014"><ele>2596.2</ele></trkpt>
    <trkpt lat="37.111274" lon="-118.449030"><ele>2596.9</ele></trkpt>
    <trkpt lat="37.111205" lon="-118.449016"><ele>2598.2</ele></trkpt>
    <trkpt lat="37.111193" lon="-118.448991"><ele>2598.4</ele></trkpt>
    <trkpt lat="37.111162" lon="-118.448965"><ele>2599.1</ele></trkpt>
    <trkpt lat="37.111118" lon="-118.448959"><ele>2599.9</ele></trkpt>
    <trkpt lat="37.111070" lon="-118.448980"><ele>2600.6</ele></trkpt>
    <trkpt lat="37.111026" lon="-118.449061"><ele>2601.0</ele></trkpt>
    <trkpt lat="37.111006" lon="-118.449135"><ele>2602.4</ele></trkpt>
    <trkpt lat="37.111021" lon="-118.449219"><ele>2602.9</ele></trkpt>
    <trkpt lat="37.111023" lon="-118.449253"><ele>2603.3</ele></trkpt>
    <trkpt lat="37.111035" lon="-118.449287"><ele>2603.4</ele></trkpt>
    <trkpt lat="37.111036" lon="-118.449321"><ele>2603.7</ele></trkpt>
    <trkpt lat="37.111025" lon="-118.449339"><ele>2604.2</ele></trkpt>
    <trkpt lat="37.111027" lon="-118.449362"><ele>2604.5</ele></trkpt>
    <trkpt lat="37.111020" lon="-118.449377"><ele>2605.0</ele></trkpt>
    <trkpt lat="37.110991" lon="-118.449352"><ele>2606.1</ele></trkpt>
    <trkpt lat="37.110988" lon="-118.449335"><ele>2606.0</ele></trkpt>
    <trkpt lat="37.110974" lon="-118.449329"><ele>2606.5</ele></trkpt>
    <trkpt lat="37.110966" lon="-118.449331"><ele>2606.8</ele></trkpt>
    <trkpt lat="37.110943" lon="-118.449320"><ele>2607.3</ele></trkpt>
    <trkpt lat="37.110931" lon="-118.449319"><ele>2607.6</ele></trkpt>
    <trkpt lat="37.110931" lon="-118.449339"><ele>2607.9</ele></trkpt>
    <trkpt lat="37.110940" lon="-118.449396"><ele>2608.4</ele></trkpt>
    <trkpt lat="37.110955" lon="-118.449430"><ele>2608.4</ele></trkpt>
    <trkpt lat="37.110958" lon="-118.449472"><ele>2608.9</ele></trkpt>
    <trkpt lat="37.110949" lon="-118.449541"><ele>2610.2</ele></trkpt>
    <trkpt lat="37.110940" lon="-118.449567"><ele>2610.9</ele></trkpt>
    <trkpt lat="37.110916" lon="-118.449564"><ele>2611.7</ele></trkpt>
    <trkpt lat="37.110854" lon="-118.449502"><ele>2612.8</ele></trkpt>
    <trkpt lat="37.110751" lon="-118.449493"><ele>2615.0</ele></trkpt>
    <trkpt lat="37.110604" lon="-118.449450"><ele>2617.6</ele></trkpt>
    <trkpt lat="37.110558" lon="-118.449439"><ele>2618.1</ele></trkpt>
    <trkpt lat="37.110510" lon="-118.449437"><ele>2618.1</ele></trkpt>
    <trkpt lat="37.110453" lon="-118.449443"><ele>2618.3</ele></trkpt>
    <trkpt lat="37.110287" lon="-118.449478"><ele>2620.3</ele></trkpt>
    <trkpt lat="37.110251" lon="-118.449491"><ele>2621.2</ele></trkpt>
    <trkpt lat="37.110226" lon="-118.449480"><ele>2621.4</ele></trkpt>
    <trkpt lat="37.110195" lon="-118.449491"><ele>2621.8</ele></trkpt>
    <trkpt lat="37.110173" lon="-118.449538"><ele>2622.6</ele></trkpt>
    <trkpt lat="37.110155" lon="-118.449601"><ele>2623.5</ele></trkpt>
    <trkpt lat="37.110139" lon="-118.449621"><ele>2623.3</ele></trkpt>
    <trkpt lat="37.110031" lon="-118.449604"><ele>2622.7</ele></trkpt>
    <trkpt lat="37.109973" lon="-118.449575"><ele>2622.2</ele></trkpt>
    <trkpt lat="37.109892" lon="-118.449638"><ele>2623.0</ele></trkpt>
    <trkpt lat="37.109812" lon="-118.449601"><ele>2622.3</ele></trkpt>
    <trkpt lat="37.109664" lon="-118.449584"><ele>2624.2</ele></trkpt>
    <trkpt lat="37.109538" lon="-118.449612"><ele>2625.2</ele></trkpt>
    <trkpt lat="37.109431" lon="-118.449858"><ele>2625.1</ele></trkpt>
    <trkpt lat="37.109397" lon="-118.449912"><ele>2625.1</ele></trkpt>
    <trkpt lat="37.109331" lon="-118.449974"><ele>2625.2</ele></trkpt>
    <trkpt lat="37.109275" lon="-118.450003"><ele>2625.4</ele></trkpt>
    <trkpt lat="37.109190" lon="-118.450062"><ele>2626.1</ele></trkpt>
    <trkpt lat="37.109145" lon="-118.450111"><ele>2626.5</ele></trkpt>
    <trkpt lat="37.109083" lon="-118.450152"><ele>2626.7</ele></trkpt>
    <trkpt lat="37.109042" lon="-118.450175"><ele>2626.8</ele></trkpt>
    <trkpt lat="37.108949" lon="-118.450172"><ele>2626.9</ele></trkpt>
    <trkpt lat="37.108896" lon="-118.450145"><ele>2627.1</ele></trkpt>
    <trkpt lat="37.108846" lon="-118.450102"><ele>2627.5</ele></trkpt>
    <trkpt lat="37.108812" lon="-118.450058"><ele>2627.9</ele></trkpt>
    <trkpt lat="37.108566" lon="-118.449903"><ele>2630.7</ele></trkpt>
    <trkpt lat="37.108543" lon="-118.449877"><ele>2631.0</ele></trkpt>
    <trkpt lat="37.108524" lon="-118.449828"><ele>2631.3</ele></trkpt>
    <trkpt lat="37.108461" lon="-118.449739"><ele>2632.6</ele></trkpt>
    <trkpt lat="37.108338" lon="-118.449656"><ele>2634.0</ele></trkpt>
    <trkpt lat="37.108222" lon="-118.449506"><ele>2635.9</ele></trkpt>
    <trkpt lat="37.108194" lon="-118.449495"><ele>2636.4</ele></trkpt>
    <trkpt lat="37.108167" lon="-118.449467"><ele>2636.8</ele></trkpt>
    <trkpt lat="37.108158" lon="-118.449444"><ele>2637.1</ele></trkpt>
    <trkpt lat="37.108115" lon="-118.449413"><ele>2638.0</ele></trkpt>
    <trkpt lat="37.107876" lon="-118.449330"><ele>2641.4</ele></trkpt>
    <trkpt lat="37.107820" lon="-118.449319"><ele>2642.2</ele></trkpt>
    <trkpt lat="37.107763" lon="-118.449292"><ele>2643.0</ele></trkpt>
    <trkpt lat="37.107705" lon="-118.449276"><ele>2644.1</ele></trkpt>
    <trkpt lat="37.107683" lon="-118.449297"><ele>2644.7</ele></trkpt>
    <trkpt lat="37.107667" lon="-118.449333"><ele>2645.6</ele></trkpt>
    <trkpt lat="37.107658" lon="-118.449374"><ele>2646.9</ele></trkpt>
    <trkpt lat="37.107664" lon="-118.449416"><ele>2647.6</ele></trkpt>
    <trkpt lat="37.107692" lon="-118.449443"><ele>2647.3</ele></trkpt>
    <trkpt lat="37.107697" lon="-118.449472"><ele>2648.4</ele></trkpt>
    <trkpt lat="37.107681" lon="-118.449483"><ele>2649.3</ele></trkpt>
    <trkpt lat="37.107644" lon="-118.449473"><ele>2650.0</ele></trkpt>
    <trkpt lat="37.107604" lon="-118.449486"><ele>2651.9</ele></trkpt>
    <trkpt lat="37.107581" lon="-118.449483"><ele>2652.6</ele></trkpt>
    <trkpt lat="37.107562" lon="-118.449457"><ele>2653.0</ele></trkpt>
    <trkpt lat="37.107537" lon="-118.449439"><ele>2653.9</ele></trkpt>
    <trkpt lat="37.107515" lon="-118.449452"><ele>2654.8</ele></trkpt>
    <trkpt lat="37.107425" lon="-118.449436"><ele>2656.6</ele></trkpt>
    <trkpt lat="37.107369" lon="-118.449416"><ele>2657.8</ele></trkpt>
    <trkpt lat="37.107298" lon="-118.449413"><ele>2659.2</ele></trkpt>
    <trkpt lat="37.107204" lon="-118.449396"><ele>2660.7</ele></trkpt>
    <trkpt lat="37.107178" lon="-118.449397"><ele>2661.1</ele></trkpt>
    <trkpt lat="37.107152" lon="-118.449389"><ele>2661.7</ele></trkpt>
    <trkpt lat="37.107124" lon="-118.449358"><ele>2662.5</ele></trkpt>
    <trkpt lat="37.107046" lon="-118.449338"><ele>2664.1</ele></trkpt>
    <trkpt lat="37.106979" lon="-118.449329"><ele>2665.3</ele></trkpt>
    <trkpt lat="37.106943" lon="-118.449315"><ele>2666.3</ele></trkpt>
    <trkpt lat="37.106901" lon="-118.449286"><ele>2667.2</ele></trkpt>
    <trkpt lat="37.106804" lon="-118.449272"><ele>2669.2</ele></trkpt>
    <trkpt lat="37.106762" lon="-118.449280"><ele>2670.1</ele></trkpt>
    <trkpt lat="37.106668" lon="-118.449262"><ele>2672.5</ele></trkpt>
    <trkpt lat="37.106651" lon="-118.449223"><ele>2673.3</ele></trkpt>
    <trkpt lat="37.106619" lon="-118.449200"><ele>2674.3</ele></trkpt>
    <trkpt lat="37.106522" lon="-118.449209"><ele>2676.9</ele></trkpt>
    <trkpt lat="37.106488" lon="-118.449197"><ele>2678.4</ele></trkpt>
    <trkpt lat="37.106410" lon="-118.449191"><ele>2680.6</ele></trkpt>
    <trkpt lat="37.106377" lon="-118.449244"><ele>2681.7</ele></trkpt>
    <trkpt lat="37.106363" lon="-118.449291"><ele>2682.3</ele></trkpt>
    <trkpt lat="37.106337" lon="-118.449315"><ele>2683.0</ele></trkpt>
    <trkpt lat="37.106294" lon="-118.449317"><ele>2684.1</ele></trkpt>
    <trkpt lat="37.106248" lon="-118.449307"><ele>2685.7</ele></trkpt>
    <trkpt lat="37.106227" lon="-118.449310"><ele>2686.3</ele></trkpt>
    <trkpt lat="37.106191" lon="-118.449362"><ele>2687.8</ele></trkpt>
    <trkpt lat="37.106167" lon="-118.449429"><ele>2690.0</ele></trkpt>
    <trkpt lat="37.106124" lon="-118.449432"><ele>2692.0</ele></trkpt>
    <trkpt lat="37.106118" lon="-118.449464"><ele>2693.4</ele></trkpt>
    <trkpt lat="37.106109" lon="-118.449880"><ele>2701.4</ele></trkpt>
    <trkpt lat="37.106124" lon="-118.449950"><ele>2701.5</ele></trkpt>
    <trkpt lat="37.106125" lon="-118.450095"><ele>2704.1</ele></trkpt>
    <trkpt lat="37.106153" lon="-118.450256"><ele>2706.7</ele></trkpt>
    <trkpt lat="37.106163" lon="-118.450349"><ele>2707.6</ele></trkpt>
    <trkpt lat="37.106168" lon="-118.450466"><ele>2708.4</ele></trkpt>
    <trkpt lat="37.106151" lon="-118.450558"><ele>2709.5</ele></trkpt>
    <trkpt lat="37.106123" lon="-118.450644"><ele>2710.7</ele></trkpt>
    <trkpt lat="37.106063" lon="-118.450769"><ele>2713.5</ele></trkpt>
    <trkpt lat="37.106034" lon="-118.450819"><ele>2714.9</ele></trkpt>
    <trkpt lat="37.106028" lon="-118.450896"><ele>2715.4</ele></trkpt>
    <trkpt lat="37.105990" lon="-118.450953"><ele>2716.6</ele></trkpt>
    <trkpt lat="37.105996" lon="-118.450848"><ele>2717.1</ele></trkpt>
    <trkpt lat="37.105970" lon="-118.450760"><ele>2719.3</ele></trkpt>
    <trkpt lat="37.105979" lon="-118.450635"><ele>2720.5</ele></trkpt>
    <trkpt lat="37.105979" lon="-118.450529"><ele>2721.4</ele></trkpt>
    <trkpt lat="37.105945" lon="-118.450420"><ele>2721.8</ele></trkpt>
    <trkpt lat="37.105863" lon="-118.450340"><ele>2725.2</ele></trkpt>
    <trkpt lat="37.105822" lon="-118.450249"><ele>2726.6</ele></trkpt>
    <trkpt lat="37.105809" lon="-118.450207"><ele>2726.6</ele></trkpt>
    <trkpt lat="37.105785" lon="-118.450178"><ele>2727.2</ele></trkpt>
    <trkpt lat="37.105767" lon="-118.450196"><ele>2728.8</ele></trkpt>
    <trkpt lat="37.105775" lon="-118.450235"><ele>2729.3</ele></trkpt>
    <trkpt lat="37.105795" lon="-118.450278"><ele>2728.9</ele></trkpt>
    <trkpt lat="37.105787" lon="-118.450364"><ele>2730.2</ele></trkpt>
    <trkpt lat="37.105795" lon="-118.450400"><ele>2730.4</ele></trkpt>
    <trkpt lat="37.105786" lon="-118.450467"><ele>2731.9</ele></trkpt>
    <trkpt lat="37.105793" lon="-118.450557"><ele>2733.1</ele></trkpt>
    <trkpt lat="37.105783" lon="-118.450612"><ele>2733.6</ele></trkpt>
    <trkpt lat="37.105745" lon="-118.450632"><ele>2735.7</ele></trkpt>
    <trkpt lat="37.105721" lon="-118.450587"><ele>2737.5</ele></trkpt>
    <trkpt lat="37.105711" lon="-118.450521"><ele>2737.8</ele></trkpt>
    <trkpt lat="37.105665" lon="-118.450463"><ele>2739.8</ele></trkpt>
    <trkpt lat="37.105634" lon="-118.450402"><ele>2741.0</ele></trkpt>
    <trkpt lat="37.105626" lon="-118.450359"><ele>2741.0</ele></trkpt>
    <trkpt lat="37.105616" lon="-118.450328"><ele>2741.7</ele></trkpt>
    <trkpt lat="37.105593" lon="-118.450317"><ele>2743.0</ele></trkpt>
    <trkpt lat="37.105581" lon="-118.450363"><ele>2743.8</ele></trkpt>
    <trkpt lat="37.105565" lon="-118.450611"><ele>2747.8</ele></trkpt>
    <trkpt lat="37.105487" lon="-118.450887"><ele>2752.6</ele></trkpt>
    <trkpt lat="37.105462" lon="-118.450962"><ele>2755.2</ele></trkpt>
    <trkpt lat="37.105462" lon="-118.451047"><ele>2756.6</ele></trkpt>
    <trkpt lat="37.105432" lon="-118.451189"><ele>2758.1</ele></trkpt>
    <trkpt lat="37.105407" lon="-118.451361"><ele>2761.8</ele></trkpt>
    <trkpt lat="37.105421" lon="-118.451427"><ele>2762.5</ele></trkpt>
    <trkpt lat="37.105420" lon="-118.451543"><ele>2765.0</ele></trkpt>
    <trkpt lat="37.105454" lon="-118.451692"><ele>2766.4</ele></trkpt>
    <trkpt lat="37.105441" lon="-118.451701"><ele>2767.6</ele></trkpt>
    <trkpt lat="37.105405" lon="-118.451623"><ele>2768.0</ele></trkpt>
    <trkpt lat="37.105376" lon="-118.451588"><ele>2768.8</ele></trkpt>
    <trkpt lat="37.105331" lon="-118.451497"><ele>2770.1</ele></trkpt>
    <trkpt lat="37.105217" lon="-118.451181"><ele>2773.9</ele></trkpt>
    <trkpt lat="37.105212" lon="-118.451079"><ele>2774.6</ele></trkpt>
    <trkpt lat="37.105135" lon="-118.450797"><ele>2780.0</ele></trkpt>
    <trkpt lat="37.105057" lon="-118.450516"><ele>2785.4</ele></trkpt>
    <trkpt lat="37.105087" lon="-118.450387"><ele>2785.8</ele></trkpt>
    <trkpt lat="37.105080" lon="-118.450301"><ele>2787.5</ele></trkpt>
    <trkpt lat="37.105060" lon="-118.450242"><ele>2789.3</ele></trkpt>
    <trkpt lat="37.105035" lon="-118.450192"><ele>2790.9</ele></trkpt>
    <trkpt lat="37.105037" lon="-118.450108"><ele>2790.8</ele></trkpt>
    <trkpt lat="37.105015" lon="-118.450092"><ele>2792.5</ele></trkpt>
    <trkpt lat="37.105005" lon="-118.450149"><ele>2792.9</ele></trkpt>
    <trkpt lat="37.104976" lon="-118.450198"><ele>2795.1</ele></trkpt>
    <trkpt lat="37.104980" lon="-118.450257"><ele>2795.3</ele></trkpt>
    <trkpt lat="37.104942" lon="-118.450375"><ele>2797.2</ele></trkpt>
    <trkpt lat="37.104875" lon="-118.450494"><ele>2799.4</ele></trkpt>
    <trkpt lat="37.104837" lon="-118.450592"><ele>2801.8</ele></trkpt>
    <trkpt lat="37.104819" lon="-118.450580"><ele>2802.9</ele></trkpt>
    <trkpt lat="37.104813" lon="-118.450521"><ele>2803.7</ele></trkpt>
    <trkpt lat="37.104813" lon="-118.450450"><ele>2804.8</ele></trkpt>
    <trkpt lat="37.104843" lon="-118.450304"><ele>2806.1</ele></trkpt>
    <trkpt lat="37.104809" lon="-118.450167"><ele>2807.8</ele></trkpt>
    <trkpt lat="37.104819" lon="-118.450081"><ele>2808.5</ele></trkpt>
    <trkpt lat="37.104800" lon="-118.449832"><ele>2812.2</ele></trkpt>
    <trkpt lat="37.104817" lon="-118.449542"><ele>2813.9</ele></trkpt>
    <trkpt lat="37.104811" lon="-118.449365"><ele>2816.9</ele></trkpt>
    <trkpt lat="37.104792" lon="-118.449268"><ele>2819.4</ele></trkpt>
    <trkpt lat="37.104792" lon="-118.449154"><ele>2821.0</ele></trkpt>
    <trkpt lat="37.104817" lon="-118.448953"><ele>2822.8</ele></trkpt>
    <trkpt lat="37.104811" lon="-118.448882"><ele>2824.1</ele></trkpt>
    <trkpt lat="37.104822" lon="-118.448834"><ele>2823.9</ele></trkpt>
    <trkpt lat="37.104817" lon="-118.448795"><ele>2824.4</ele></trkpt>
    <trkpt lat="37.104796" lon="-118.448800"><ele>2826.1</ele></trkpt>
    <trkpt lat="37.104779" lon="-118.448874"><ele>2825.9</ele></trkpt>
    <trkpt lat="37.104753" lon="-118.448925"><ele>2827.0</ele></trkpt>
    <trkpt lat="37.104699" lon="-118.449126"><ele>2827.0</ele></trkpt>
    <trkpt lat="37.104656" lon="-118.449241"><ele>2827.9</ele></trkpt>
    <trkpt lat="37.104613" lon="-118.449335"><ele>2830.3</ele></trkpt>
    <trkpt lat="37.104528" lon="-118.449595"><ele>2835.9</ele></trkpt>
    <trkpt lat="37.104443" lon="-118.449855"><ele>2840.2</ele></trkpt>
    <trkpt lat="37.104358" lon="-118.450115"><ele>2843.9</ele></trkpt>
    <trkpt lat="37.104285" lon="-118.450313"><ele>2847.9</ele></trkpt>
    <trkpt lat="37.104193" lon="-118.450435"><ele>2853.6</ele></trkpt>
    <trkpt lat="37.104073" lon="-118.450781"><ele>2861.4</ele></trkpt>
    <trkpt lat="37.104061" lon="-118.450859"><ele>2864.3</ele></trkpt>
    <trkpt lat="37.104076" lon="-118.450925"><ele>2866.0</ele></trkpt>
    <trkpt lat="37.104101" lon="-118.450934"><ele>2865.5</ele></trkpt>
    <trkpt lat="37.104115" lon="-118.450977"><ele>2866.4</ele></trkpt>
    <trkpt lat="37.104099" lon="-118.451068"><ele>2868.7</ele></trkpt>
    <trkpt lat="37.104140" lon="-118.451118"><ele>2867.6</ele></trkpt>
    <trkpt lat="37.104258" lon="-118.451366"><ele>2871.3</ele></trkpt>
    <trkpt lat="37.104259" lon="-118.451445"><ele>2873.2</ele></trkpt>
    <trkpt lat="37.104267" lon="-118.451485"><ele>2873.7</ele></trkpt>
    <trkpt lat="37.104268" lon="-118.451580"><ele>2875.6</ele></trkpt>
    <trkpt lat="37.104294" lon="-118.451692"><ele>2876.2</ele></trkpt>
    <trkpt lat="37.104287" lon="-118.451802"><ele>2878.2</ele></trkpt>
    <trkpt lat="37.104319" lon="-118.451934"><ele>2879.5</ele></trkpt>
    <trkpt lat="37.104464" lon="-118.452224"><ele>2882.1</ele></trkpt>
    <trkpt lat="37.104552" lon="-118.452372"><ele>2880.4</ele></trkpt>
    <trkpt lat="37.104629" lon="-118.452530"><ele>2879.8</ele></trkpt>
    <trkpt lat="37.104689" lon="-118.452613"><ele>2879.0</ele></trkpt>
    <trkpt lat="37.104706" lon="-118.452668"><ele>2879.7</ele></trkpt>
    <trkpt lat="37.104688" lon="-118.452702"><ele>2880.9</ele></trkpt>
    <trkpt lat="37.104670" lon="-118.452715"><ele>2881.7</ele></trkpt>
    <trkpt lat="37.104671" lon="-118.452743"><ele>2882.8</ele></trkpt>
    <trkpt lat="37.104688" lon="-118.452771"><ele>2883.7</ele></trkpt>
    <trkpt lat="37.104708" lon="-118.452787"><ele>2883.8</ele></trkpt>
    <trkpt lat="37.104715" lon="-118.452829"><ele>2885.3</ele></trkpt>
    <trkpt lat="37.104732" lon="-118.452861"><ele>2886.1</ele></trkpt>
    <trkpt lat="37.104743" lon="-118.452873"><ele>2886.3</ele></trkpt>
    <trkpt lat="37.104738" lon="-118.452895"><ele>2887.3</ele></trkpt>
    <trkpt lat="37.104723" lon="-118.452910"><ele>2888.6</ele></trkpt>
    <trkpt lat="37.104701" lon="-118.452918"><ele>2889.8</ele></trkpt>
    <trkpt lat="37.104666" lon="-118.452880"><ele>2890.2</ele></trkpt>
    <trkpt lat="37.104653" lon="-118.452899"><ele>2891.7</ele></trkpt>
    <trkpt lat="37.104668" lon="-118.452924"><ele>2891.4</ele></trkpt>
    <trkpt lat="37.104674" lon="-118.452962"><ele>2892.3</ele></trkpt>
    <trkpt lat="37.104694" lon="-118.452998"><ele>2892.2</ele></trkpt>
    <trkpt lat="37.104682" lon="-118.453046"><ele>2893.5</ele></trkpt>
    <trkpt lat="37.104681" lon="-118.453136"><ele>2893.7</ele></trkpt>
    <trkpt lat="37.104673" lon="-118.453198"><ele>2895.0</ele></trkpt>
    <trkpt lat="37.104655" lon="-118.453209"><ele>2896.1</ele></trkpt>
    <trkpt lat="37.104637" lon="-118.453234"><ele>2897.0</ele></trkpt>
    <trkpt lat="37.104646" lon="-118.453263"><ele>2897.7</ele></trkpt>
    <trkpt lat="37.104659" lon="-118.453277"><ele>2898.0</ele></trkpt>
    <trkpt lat="37.104694" lon="-118.453287"><ele>2898.7</ele></trkpt>
    <trkpt lat="37.104701" lon="-118.453296"><ele>2899.4</ele></trkpt>
    <trkpt lat="37.104691" lon="-118.453313"><ele>2900.1</ele></trkpt>
    <trkpt lat="37.104673" lon="-118.453315"><ele>2899.8</ele></trkpt>
    <trkpt lat="37.104652" lon="-118.453335"><ele>2901.1</ele></trkpt>
    <trkpt lat="37.104599" lon="-118.453372"><ele>2903.1</ele></trkpt>
    <trkpt lat="37.104580" lon="-118.453376"><ele>2903.6</ele></trkpt>
    <trkpt lat="37.104565" lon="-118.453372"><ele>2903.8</ele></trkpt>
    <trkpt lat="37.104550" lon="-118.453374"><ele>2904.4</ele></trkpt>
    <trkpt lat="37.104543" lon="-118.453386"><ele>2905.2</ele></trkpt>
    <trkpt lat="37.104548" lon="-118.453410"><ele>2906.4</ele></trkpt>
    <trkpt lat="37.104565" lon="-118.453435"><ele>2907.1</ele></trkpt>
    <trkpt lat="37.104611" lon="-118.453436"><ele>2907.6</ele></trkpt>
    <trkpt lat="37.104631" lon="-118.453440"><ele>2908.3</ele></trkpt>
    <trkpt lat="37.104635" lon="-118.453448"><ele>2908.7</ele></trkpt>
    <trkpt lat="37.104559" lon="-118.453495"><ele>2910.7</ele></trkpt>
    <trkpt lat="37.104487" lon="-118.453520"><ele>2912.8</ele></trkpt>
    <trkpt lat="37.104506" lon="-118.453565"><ele>2914.1</ele></trkpt>
    <trkpt lat="37.104525" lon="-118.453579"><ele>2914.5</ele></trkpt>
    <trkpt lat="37.104595" lon="-118.453587"><ele>2915.7</ele></trkpt>
    <trkpt lat="37.104633" lon="-118.453600"><ele>2916.9</ele></trkpt>
    <trkpt lat="37.104622" lon="-118.453624"><ele>2917.5</ele></trkpt>
    <trkpt lat="37.104580" lon="-118.453636"><ele>2918.1</ele></trkpt>
    <trkpt lat="37.104535" lon="-118.453643"><ele>2918.3</ele></trkpt>
    <trkpt lat="37.104492" lon="-118.453669"><ele>2919.2</ele></trkpt>
    <trkpt lat="37.104437" lon="-118.453672"><ele>2919.9</ele></trkpt>
    <trkpt lat="37.104395" lon="-118.453683"><ele>2921.0</ele></trkpt>
    <trkpt lat="37.104432" lon="-118.453727"><ele>2922.6</ele></trkpt>
    <trkpt lat="37.104504" lon="-118.453727"><ele>2923.3</ele></trkpt>
    <trkpt lat="37.104512" lon="-118.453746"><ele>2924.4</ele></trkpt>
    <trkpt lat="37.104488" lon="-118.453765"><ele>2925.1</ele></trkpt>
    <trkpt lat="37.104439" lon="-118.453777"><ele>2925.6</ele></trkpt>
    <trkpt lat="37.104349" lon="-118.453777"><ele>2926.5</ele></trkpt>
    <trkpt lat="37.104291" lon="-118.453805"><ele>2928.9</ele></trkpt>
    <trkpt lat="37.104291" lon="-118.453844"><ele>2931.1</ele></trkpt>
    <trkpt lat="37.104472" lon="-118.453974"><ele>2937.8</ele></trkpt>
    <trkpt lat="37.104466" lon="-118.454006"><ele>2939.3</ele></trkpt>
    <trkpt lat="37.104425" lon="-118.454014"><ele>2940.1</ele></trkpt>
    <trkpt lat="37.104356" lon="-118.454013"><ele>2941.3</ele></trkpt>
    <trkpt lat="37.104348" lon="-118.454032"><ele>2942.4</ele></trkpt>
    <trkpt lat="37.104361" lon="-118.454057"><ele>2944.0</ele></trkpt>
    <trkpt lat="37.104403" lon="-118.454084"><ele>2945.1</ele></trkpt>
    <trkpt lat="37.104465" lon="-118.454106"><ele>2945.4</ele></trkpt>
    <trkpt lat="37.104515" lon="-118.454133"><ele>2946.7</ele></trkpt>
    <trkpt lat="37.104535" lon="-118.454153"><ele>2947.5</ele></trkpt>
    <trkpt lat="37.104548" lon="-118.454197"><ele>2949.1</ele></trkpt>
    <trkpt lat="37.104503" lon="-118.454220"><ele>2950.8</ele></trkpt>
    <trkpt lat="37.104414" lon="-118.454233"><ele>2954.1</ele></trkpt>
    <trkpt lat="37.104379" lon="-118.454244"><ele>2955.3</ele></trkpt>
    <trkpt lat="37.104377" lon="-118.454268"><ele>2956.4</ele></trkpt>
    <trkpt lat="37.104411" lon="-118.454312"><ele>2958.6</ele></trkpt>
    <trkpt lat="37.104478" lon="-118.454349"><ele>2959.2</ele></trkpt>
    <trkpt lat="37.104484" lon="-118.454369"><ele>2959.6</ele></trkpt>
    <trkpt lat="37.104488" lon="-118.454410"><ele>2960.5</ele></trkpt>
    <trkpt lat="37.104481" lon="-118.454442"><ele>2961.6</ele></trkpt>
    <trkpt lat="37.104448" lon="-118.454448"><ele>2962.4</ele></trkpt>
    <trkpt lat="37.104374" lon="-118.454402"><ele>2962.8</ele></trkpt>
    <trkpt lat="37.104347" lon="-118.454413"><ele>2963.4</ele></trkpt>
    <trkpt lat="37.104287" lon="-118.454539"><ele>2968.0</ele></trkpt>
    <trkpt lat="37.104237" lon="-118.454602"><ele>2970.7</ele></trkpt>
    <trkpt lat="37.104210" lon="-118.454660"><ele>2970.8</ele></trkpt>
    <trkpt lat="37.104195" lon="-118.454721"><ele>2970.4</ele></trkpt>
    <trkpt lat="37.104178" lon="-118.454762"><ele>2968.8</ele></trkpt>
    <trkpt lat="37.104116" lon="-118.454791"><ele>2968.7</ele></trkpt>
    <trkpt lat="37.104075" lon="-118.454788"><ele>2969.1</ele></trkpt>
    <trkpt lat="37.103963" lon="-118.454816"><ele>2969.7</ele></trkpt>
    <trkpt lat="37.103917" lon="-118.454800"><ele>2970.2</ele></trkpt>
    <trkpt lat="37.103880" lon="-118.454802"><ele>2971.1</ele></trkpt>
    <trkpt lat="37.103839" lon="-118.454818"><ele>2972.5</ele></trkpt>
    <trkpt lat="37.103785" lon="-118.454857"><ele>2974.0</ele></trkpt>
    <trkpt lat="37.103662" lon="-118.454898"><ele>2975.6</ele></trkpt>
    <trkpt lat="37.103423" lon="-118.454936"><ele>2982.2</ele></trkpt>
    <trkpt lat="37.103069" lon="-118.454951"><ele>2993.4</ele></trkpt>
    <trkpt lat="37.102982" lon="-118.454914"><ele>2992.7</ele></trkpt>
    <trkpt lat="37.102953" lon="-118.454874"><ele>2991.6</ele></trkpt>
    <trkpt lat="37.102935" lon="-118.454827"><ele>2991.3</ele></trkpt>
    <trkpt lat="37.102884" lon="-118.454813"><ele>2990.5</ele></trkpt>
    <trkpt lat="37.102850" lon="-118.454808"><ele>2990.2</ele></trkpt>
    <trkpt lat="37.102810" lon="-118.454810"><ele>2990.0</ele></trkpt>
    <trkpt lat="37.102747" lon="-118.454796"><ele>2989.6</ele></trkpt>
    <trkpt lat="37.102693" lon="-118.454802"><ele>2989.1</ele></trkpt>
    <trkpt lat="37.102662" lon="-118.454850"><ele>2988.5</ele></trkpt>
    <trkpt lat="37.102613" lon="-118.454870"><ele>2987.4</ele></trkpt>
    <trkpt lat="37.102548" lon="-118.454931"><ele>2986.5</ele></trkpt>
    <trkpt lat="37.102517" lon="-118.455022"><ele>2986.0</ele></trkpt>
    <trkpt lat="37.102468" lon="-118.455125"><ele>2984.2</ele></trkpt>
    <trkpt lat="37.102430" lon="-118.455164"><ele>2983.6</ele></trkpt>
    <trkpt lat="37.102386" lon="-118.455256"><ele>2982.0</ele></trkpt>
    <trkpt lat="37.102368" lon="-118.455333"><ele>2980.5</ele></trkpt>
    <trkpt lat="37.102332" lon="-118.455369"><ele>2979.5</ele></trkpt>
    <trkpt lat="37.102310" lon="-118.455376"><ele>2979.0</ele></trkpt>
    <trkpt lat="37.102129" lon="-118.455366"><ele>2978.2</ele></trkpt>
    <trkpt lat="37.102051" lon="-118.455350"><ele>2977.2</ele></trkpt>
    <trkpt lat="37.101973" lon="-118.455341"><ele>2976.7</ele></trkpt>
    <trkpt lat="37.101902" lon="-118.455368"><ele>2976.7</ele></trkpt>
    <trkpt lat="37.101812" lon="-118.455499"><ele>2978.2</ele></trkpt>
    <trkpt lat="37.101740" lon="-118.455589"><ele>2978.8</ele></trkpt>
    <trkpt lat="37.101684" lon="-118.455618"><ele>2978.2</ele></trkpt>
    <trkpt lat="37.101527" lon="-118.455652"><ele>2976.7</ele></trkpt>
    <trkpt lat="37.101452" lon="-118.455696"><ele>2976.3</ele></trkpt>
    <trkpt lat="37.101315" lon="-118.455810"><ele>2972.9</ele></trkpt>
    <trkpt lat="37.101257" lon="-118.455816"><ele>2973.8</ele></trkpt>
    <trkpt lat="37.101208" lon="-118.455830"><ele>2974.0</ele></trkpt>
    <trkpt lat="37.101164" lon="-118.455872"><ele>2973.3</ele></trkpt>
    <trkpt lat="37.101133" lon="-118.455939"><ele>2972.4</ele></trkpt>
    <trkpt lat="37.101107" lon="-118.455973"><ele>2971.9</ele></trkpt>
    <trkpt lat="37.101065" lon="-118.455987"><ele>2971.3</ele></trkpt>
    <trkpt lat="37.100951" lon="-118.456007"><ele>2972.1</ele></trkpt>
    <trkpt lat="37.100742" lon="-118.456070"><ele>2973.8</ele></trkpt>
    <trkpt lat="37.100532" lon="-118.456132"><ele>2972.2</ele></trkpt>
    <trkpt lat="37.100477" lon="-118.456167"><ele>2971.3</ele></trkpt>
    <trkpt lat="37.100321" lon="-118.456333"><ele>2971.3</ele></trkpt>
    <trkpt lat="37.100233" lon="-118.456455"><ele>2973.7</ele></trkpt>
    <trkpt lat="37.100171" lon="-118.456516"><ele>2973.5</ele></trkpt>
    <trkpt lat="37.100098" lon="-118.456537"><ele>2973.4</ele></trkpt>
    <trkpt lat="37.099966" lon="-118.456516"><ele>2974.2</ele></trkpt>
    <trkpt lat="37.099783" lon="-118.456473"><ele>2971.7</ele></trkpt>
    <trkpt lat="37.099722" lon="-118.456454"><ele>2969.3</ele></trkpt>
    <trkpt lat="37.099694" lon="-118.456455"><ele>2967.6</ele></trkpt>
    <trkpt lat="37.099666" lon="-118.456491"><ele>2965.1</ele></trkpt>
    <trkpt lat="37.099662" lon="-118.456525"><ele>2964.2</ele></trkpt>
    <trkpt lat="37.099668" lon="-118.456560"><ele>2963.6</ele></trkpt>
    <trkpt lat="37.099680" lon="-118.456589"><ele>2963.7</ele></trkpt>
    <trkpt lat="37.099681" lon="-118.456618"><ele>2962.9</ele></trkpt>
    <trkpt lat="37.099667" lon="-118.456630"><ele>2961.8</ele></trkpt>
    <trkpt lat="37.099659" lon="-118.456669"><ele>2960.9</ele></trkpt>
    <trkpt lat="37.099663" lon="-118.456699"><ele>2960.9</ele></trkpt>
    <trkpt lat="37.099659" lon="-118.456723"><ele>2960.7</ele></trkpt>
    <trkpt lat="37.099645" lon="-118.456732"><ele>2960.5</ele></trkpt>
    <trkpt lat="37.099629" lon="-118.456728"><ele>2960.3</ele></trkpt>
    <trkpt lat="37.099608" lon="-118.456676"><ele>2959.8</ele></trkpt>
    <trkpt lat="37.099585" lon="-118.456649"><ele>2959.5</ele></trkpt>
    <trkpt lat="37.099530" lon="-118.456638"><ele>2958.5</ele></trkpt>
    <trkpt lat="37.099401" lon="-118.456595"><ele>2957.4</ele></trkpt>
    <trkpt lat="37.099290" lon="-118.456583"><ele>2957.8</ele></trkpt>
    <trkpt lat="37.099270" lon="-118.456615"><ele>2957.5</ele></trkpt>
    <trkpt lat="37.099238" lon="-118.456760"><ele>2954.5</ele></trkpt>
    <trkpt lat="37.099195" lon="-118.456815"><ele>2954.1</ele></trkpt>
    <trkpt lat="37.099114" lon="-118.456823"><ele>2953.1</ele></trkpt>
    <trkpt lat="37.099054" lon="-118.456835"><ele>2951.4</ele></trkpt>
    <trkpt lat="37.099001" lon="-118.456834"><ele>2950.9</ele></trkpt>
    <trkpt lat="37.098991" lon="-118.456844"><ele>2950.4</ele></trkpt>
    <trkpt lat="37.098996" lon="-118.456864"><ele>2949.6</ele></trkpt>
    <trkpt lat="37.099011" lon="-118.456869"><ele>2949.5</ele></trkpt>
    <trkpt lat="37.099106" lon="-118.456935"><ele>2947.0</ele></trkpt>
    <trkpt lat="37.099123" lon="-118.456956"><ele>2946.3</ele></trkpt>
    <trkpt lat="37.099129" lon="-118.456985"><ele>2945.1</ele></trkpt>
    <trkpt lat="37.099136" lon="-118.457055"><ele>2943.2</ele></trkpt>
    <trkpt lat="37.099103" lon="-118.457125"><ele>2942.0</ele></trkpt>
    <trkpt lat="37.098971" lon="-118.457135"><ele>2940.1</ele></trkpt>
    <trkpt lat="37.098744" lon="-118.457229"><ele>2935.2</ele></trkpt>
    <trkpt lat="37.098560" lon="-118.457170"><ele>2936.4</ele></trkpt>
    <trkpt lat="37.098389" lon="-118.457165"><ele>2938.5</ele></trkpt>
    <trkpt lat="37.098303" lon="-118.457192"><ele>2937.9</ele></trkpt>
    <trkpt lat="37.098119" lon="-118.457417"><ele>2936.8</ele></trkpt>
    <trkpt lat="37.098045" lon="-118.457430"><ele>2938.5</ele></trkpt>
    <trkpt lat="37.097944" lon="-118.457422"><ele>2941.4</ele></trkpt>
    <trkpt lat="37.097893" lon="-118.457390"><ele>2943.2</ele></trkpt>
    <trkpt lat="37.097816" lon="-118.457294"><ele>2944.7</ele></trkpt>
    <trkpt lat="37.097760" lon="-118.457275"><ele>2945.0</ele></trkpt>
    <trkpt lat="37.097540" lon="-118.457277"><ele>2946.9</ele></trkpt>
    <trkpt lat="37.097319" lon="-118.457280"><ele>2952.6</ele></trkpt>
    <trkpt lat="37.097232" lon="-118.457420"><ele>2953.2</ele></trkpt>
    <trkpt lat="37.097248" lon="-118.457579"><ele>2952.0</ele></trkpt>
    <trkpt lat="37.097198" lon="-118.457665"><ele>2949.5</ele></trkpt>
    <trkpt lat="37.097307" lon="-118.457768"><ele>2948.3</ele></trkpt>
    <trkpt lat="37.097316" lon="-118.457834"><ele>2946.6</ele></trkpt>
    <trkpt lat="37.097159" lon="-118.457989"><ele>2942.0</ele></trkpt>
    <trkpt lat="37.097101" lon="-118.458138"><ele>2940.8</ele></trkpt>
    <trkpt lat="37.096941" lon="-118.458243"><ele>2941.8</ele></trkpt>
    <trkpt lat="37.096833" lon="-118.458213"><ele>2942.6</ele></trkpt>
    <trkpt lat="37.096590" lon="-118.458232"><ele>2948.6</ele></trkpt>
    <trkpt lat="37.096532" lon="-118.458393"><ele>2953.7</ele></trkpt>
    <trkpt lat="37.096346" lon="-118.458522"><ele>2956.4</ele></trkpt>
    <trkpt lat="37.096314" lon="-118.458616"><ele>2956.8</ele></trkpt>
    <trkpt lat="37.096312" lon="-118.458729"><ele>2956.8</ele></trkpt>
    <trkpt lat="37.096414" lon="-118.459136"><ele>2957.7</ele></trkpt>
    <trkpt lat="37.096423" lon="-118.459394"><ele>2962.9</ele></trkpt>
    <trkpt lat="37.096395" lon="-118.459568"><ele>2965.4</ele></trkpt>
    <trkpt lat="37.096312" lon="-118.459734"><ele>2969.7</ele></trkpt>
    <trkpt lat="37.096314" lon="-118.459850"><ele>2972.0</ele></trkpt>
    <trkpt lat="37.096390" lon="-118.460060"><ele>2974.5</ele></trkpt>
    <trkpt lat="37.096466" lon="-118.460270"><ele>2976.7</ele></trkpt>
    <trkpt lat="37.096543" lon="-118.460480"><ele>2978.8</ele></trkpt>
    <trkpt lat="37.096553" lon="-118.460566"><ele>2980.7</ele></trkpt>
    <trkpt lat="37.096489" lon="-118.460697"><ele>2983.6</ele></trkpt>
    <trkpt lat="37.096440" lon="-118.460729"><ele>2985.3</ele></trkpt>
    <trkpt lat="37.096309" lon="-118.460652"><ele>2988.0</ele></trkpt>
    <trkpt lat="37.096280" lon="-118.460786"><ele>2989.6</ele></trkpt>
    <trkpt lat="37.096149" lon="-118.460909"><ele>2994.0</ele></trkpt>
    <trkpt lat="37.096096" lon="-118.460893"><ele>2995.9</ele></trkpt>
    <trkpt lat="37.096044" lon="-118.460799"><ele>2998.2</ele></trkpt>
    <trkpt lat="37.095903" lon="-118.460778"><ele>3002.8</ele></trkpt>
    <trkpt lat="37.095811" lon="-118.460644"><ele>3005.0</ele></trkpt>
    <trkpt lat="37.095704" lon="-118.460583"><ele>3008.1</ele></trkpt>
    <trkpt lat="37.095625" lon="-118.460477"><ele>3009.2</ele></trkpt>
    <trkpt lat="37.095563" lon="-118.460477"><ele>3010.7</ele></trkpt>
    <trkpt lat="37.095526" lon="-118.460544"><ele>3012.0</ele></trkpt>
    <trkpt lat="37.095473" lon="-118.460550"><ele>3013.7</ele></trkpt>
    <trkpt lat="37.095351" lon="-118.460485"><ele>3015.3</ele></trkpt>
    <trkpt lat="37.095328" lon="-118.460528"><ele>3016.7</ele></trkpt>
    <trkpt lat="37.095383" lon="-118.460737"><ele>3023.4</ele></trkpt>
    <trkpt lat="37.095347" lon="-118.460764"><ele>3025.2</ele></trkpt>
    <trkpt lat="37.095236" lon="-118.460665"><ele>3029.1</ele></trkpt>
    <trkpt lat="37.095107" lon="-118.460467"><ele>3028.6</ele></trkpt>
    <trkpt lat="37.095049" lon="-118.460448"><ele>3029.9</ele></trkpt>
    <trkpt lat="37.094726" lon="-118.460547"><ele>3034.9</ele></trkpt>
    <trkpt lat="37.094694" lon="-118.460646"><ele>3036.4</ele></trkpt>
    <trkpt lat="37.094696" lon="-118.460788"><ele>3039.6</ele></trkpt>
    <trkpt lat="37.094814" lon="-118.461086"><ele>3047.7</ele></trkpt>
    <trkpt lat="37.094795" lon="-118.461330"><ele>3053.0</ele></trkpt>
    <trkpt lat="37.094746" lon="-118.461440"><ele>3055.5</ele></trkpt>
    <trkpt lat="37.094679" lon="-118.461483"><ele>3057.8</ele></trkpt>
    <trkpt lat="37.094395" lon="-118.461558"><ele>3066.8</ele></trkpt>
    <trkpt lat="37.094260" lon="-118.461636"><ele>3073.9</ele></trkpt>
    <trkpt lat="37.094206" lon="-118.461698"><ele>3075.0</ele></trkpt>
    <trkpt lat="37.094155" lon="-118.461840"><ele>3079.3</ele></trkpt>
    <trkpt lat="37.094081" lon="-118.461855"><ele>3082.8</ele></trkpt>
    <trkpt lat="37.094025" lon="-118.461759"><ele>3084.8</ele></trkpt>
    <trkpt lat="37.094017" lon="-118.461576"><ele>3085.7</ele></trkpt>
    <trkpt lat="37.093990" lon="-118.461521"><ele>3086.1</ele></trkpt>
    <trkpt lat="37.094059" lon="-118.461424"><ele>3089.0</ele></trkpt>
    <trkpt lat="37.094009" lon="-118.461267"><ele>3088.8</ele></trkpt>
    <trkpt lat="37.093841" lon="-118.461046"><ele>3087.4</ele></trkpt>
    <trkpt lat="37.093578" lon="-118.460873"><ele>3087.1</ele></trkpt>
    <trkpt lat="37.093399" lon="-118.460711"><ele>3091.4</ele></trkpt>
    <trkpt lat="37.093361" lon="-118.460625"><ele>3094.4</ele></trkpt>
    <trkpt lat="37.093401" lon="-118.460479"><ele>3092.0</ele></trkpt>
    <trkpt lat="37.093517" lon="-118.460409"><ele>3087.8</ele></trkpt>
    <trkpt lat="37.093564" lon="-118.460319"><ele>3085.6</ele></trkpt>
    <trkpt lat="37.093596" lon="-118.460221"><ele>3084.3</ele></trkpt>
    <trkpt lat="37.093601" lon="-118.460003"><ele>3082.7</ele></trkpt>
    <trkpt lat="37.093533" lon="-118.459825"><ele>3083.5</ele></trkpt>
    <trkpt lat="37.093314" lon="-118.459753"><ele>3088.0</ele></trkpt>
    <trkpt lat="37.093280" lon="-118.459702"><ele>3090.5</ele></trkpt>
    <trkpt lat="37.093312" lon="-118.459608"><ele>3092.7</ele></trkpt>
    <trkpt lat="37.093436" lon="-118.459442"><ele>3097.1</ele></trkpt>
    <trkpt lat="37.093468" lon="-118.459185"><ele>3099.6</ele></trkpt>
    <trkpt lat="37.093460" lon="-118.459101"><ele>3101.5</ele></trkpt>
    <trkpt lat="37.093379" lon="-118.458975"><ele>3105.9</ele></trkpt>
    <trkpt lat="37.093278" lon="-118.458645"><ele>3116.5</ele></trkpt>
    <trkpt lat="37.093244" lon="-118.458586"><ele>3117.0</ele></trkpt>
    <trkpt lat="37.093051" lon="-118.458511"><ele>3118.7</ele></trkpt>
    <trkpt lat="37.092978" lon="-118.458364"><ele>3119.2</ele></trkpt>
    <trkpt lat="37.092786" lon="-118.458305"><ele>3120.4</ele></trkpt>
    <trkpt lat="37.092769" lon="-118.458211"><ele>3122.7</ele></trkpt>
    <trkpt lat="37.092893" lon="-118.457935"><ele>3127.0</ele></trkpt>
    <trkpt lat="37.092916" lon="-118.457739"><ele>3124.4</ele></trkpt>
    <trkpt lat="37.092807" lon="-118.457626"><ele>3121.9</ele></trkpt>
    <trkpt lat="37.092626" lon="-118.457610"><ele>3122.9</ele></trkpt>
    <trkpt lat="37.092445" lon="-118.457594"><ele>3124.1</ele></trkpt>
    <trkpt lat="37.092264" lon="-118.457578"><ele>3123.9</ele></trkpt>
    <trkpt lat="37.092085" lon="-118.457521"><ele>3121.9</ele></trkpt>
    <trkpt lat="37.091907" lon="-118.457463"><ele>3121.5</ele></trkpt>
    <trkpt lat="37.091729" lon="-118.457406"><ele>3120.3</ele></trkpt>
    <trkpt lat="37.091597" lon="-118.457580"><ele>3120.5</ele></trkpt>
    <trkpt lat="37.091464" lon="-118.457753"><ele>3127.6</ele></trkpt>
    <trkpt lat="37.091332" lon="-118.457927"><ele>3123.4</ele></trkpt>
    <trkpt lat="37.091200" lon="-118.458100"><ele>3124.2</ele></trkpt>
    <trkpt lat="37.091080" lon="-118.458280"><ele>3121.4</ele></trkpt>
    <trkpt lat="37.090960" lon="-118.458460"><ele>3123.2</ele></trkpt>
    <trkpt lat="37.090840" lon="-118.458640"><ele>3126.1</ele></trkpt>
    <trkpt lat="37.090720" lon="-118.458820"><ele>3133.4</ele></trkpt>
    <trkpt lat="37.090600" lon="-118.459000"><ele>3143.1</ele></trkpt>
    <trkpt lat="37.090460" lon="-118.459170"><ele>3152.2</ele></trkpt>
    <trkpt lat="37.090320" lon="-118.459340"><ele>3160.5</ele></trkpt>
    <trkpt lat="37.090180" lon="-118.459510"><ele>3166.6</ele></trkpt>
    <trkpt lat="37.090040" lon="-118.459680"><ele>3175.9</ele></trkpt>
    <trkpt lat="37.089900" lon="-118.459850"><ele>3197.7</ele></trkpt>
    <trkpt lat="37.089750" lon="-118.460037"><ele>3230.2</ele></trkpt>
    <trkpt lat="37.089600" lon="-118.460225"><ele>3248.4</ele></trkpt>
    <trkpt lat="37.089450" lon="-118.460413"><ele>3265.9</ele></trkpt>
    <trkpt lat="37.089300" lon="-118.460600"><ele>3277.9</ele></trkpt>
    <trkpt lat="37.089175" lon="-118.460775"><ele>3289.3</ele></trkpt>
    <trkpt lat="37.089050" lon="-118.460950"><ele>3286.9</ele></trkpt>
    <trkpt lat="37.088925" lon="-118.461125"><ele>3287.5</ele></trkpt>
    <trkpt lat="37.088800" lon="-118.461300"><ele>3290.2</ele></trkpt>
    <trkpt lat="37.088825" lon="-118.461525"><ele>3283.7</ele></trkpt>
    <trkpt lat="37.088850" lon="-118.461750"><ele>3284.0</ele></trkpt>
    <trkpt lat="37.088638" lon="-118.461812"><ele>3293.7</ele></trkpt>
    <trkpt lat="37.088425" lon="-118.461875"><ele>3311.6</ele></trkpt>
    <trkpt lat="37.088212" lon="-118.461938"><ele>3319.9</ele></trkpt>
    <trkpt lat="37.088000" lon="-118.462000"><ele>3326.5</ele></trkpt>
    <trkpt lat="37.087833" lon="-118.461833"><ele>3316.0</ele></trkpt>
    <trkpt lat="37.087667" lon="-118.461667"><ele>3310.4</ele></trkpt>
    <trkpt lat="37.087500" lon="-118.461500"><ele>3309.8</ele></trkpt>
    <trkpt lat="37.087250" lon="-118.461400"><ele>3308.2</ele></trkpt>
    <trkpt lat="37.087000" lon="-118.461300"><ele>3307.0</ele></trkpt>
    <trkpt lat="37.086800" lon="-118.461240"><ele>3304.4</ele></trkpt>
    <trkpt lat="37.086600" lon="-118.461180"><ele>3307.5</ele></trkpt>
    <trkpt lat="37.086400" lon="-118.461120"><ele>3315.6</ele></trkpt>
    <trkpt lat="37.086200" lon="-118.461060"><ele>3318.9</ele></trkpt>
    <trkpt lat="37.086000" lon="-118.461000"><ele>3319.9</ele></trkpt>
    <trkpt lat="37.085800" lon="-118.460960"><ele>3322.5</ele></trkpt>
    <trkpt lat="37.085600" lon="-118.460920"><ele>3329.3</ele></trkpt>
    <trkpt lat="37.085400" lon="-118.460880"><ele>3334.0</ele></trkpt>
    <trkpt lat="37.085200" lon="-118.460840"><ele>3338.4</ele></trkpt>
    <trkpt lat="37.085000" lon="-118.460800"><ele>3340.8</ele></trkpt>
    <trkpt lat="37.084800" lon="-118.460800"><ele>3344.8</ele></trkpt>
    <trkpt lat="37.084600" lon="-118.460800"><ele>3344.3</ele></trkpt>
    <trkpt lat="37.084400" lon="-118.460800"><ele>3338.1</ele></trkpt>
    <trkpt lat="37.084200" lon="-118.460800"><ele>3322.7</ele></trkpt>
    <trkpt lat="37.084000" lon="-118.460800"><ele>3317.1</ele></trkpt>
    <trkpt lat="37.083800" lon="-118.460780"><ele>3311.7</ele></trkpt>
    <trkpt lat="37.083600" lon="-118.460760"><ele>3310.0</ele></trkpt>
    <trkpt lat="37.083400" lon="-118.460740"><ele>3306.9</ele></trkpt>
    <trkpt lat="37.083200" lon="-118.460720"><ele>3305.7</ele></trkpt>
    <trkpt lat="37.083000" lon="-118.460700"><ele>3307.0</ele></trkpt>
    <trkpt lat="37.082800" lon="-118.460700"><ele>3314.1</ele></trkpt>
    <trkpt lat="37.082600" lon="-118.460700"><ele>3338.0</ele></trkpt>
    <trkpt lat="37.082400" lon="-118.460700"><ele>3357.7</ele></trkpt>
    <trkpt lat="37.082200" lon="-118.460700"><ele>3358.6</ele></trkpt>
    <trkpt lat="37.082000" lon="-118.460700"><ele>3361.5</ele></trkpt>
    <trkpt lat="37.081800" lon="-118.460740"><ele>3367.7</ele></trkpt>
    <trkpt lat="37.081600" lon="-118.460780"><ele>3373.1</ele></trkpt>
    <trkpt lat="37.081400" lon="-118.460820"><ele>3382.1</ele></trkpt>
    <trkpt lat="37.081200" lon="-118.460860"><ele>3391.5</ele></trkpt>
    <trkpt lat="37.081000" lon="-118.460900"><ele>3398.6</ele></trkpt>
    <trkpt lat="37.080767" lon="-118.460950"><ele>3407.9</ele></trkpt>
    <trkpt lat="37.080533" lon="-118.461000"><ele>3412.8</ele></trkpt>
    <trkpt lat="37.080300" lon="-118.461050"><ele>3412.2</ele></trkpt>
    <trkpt lat="37.080067" lon="-118.461050"><ele>3412.8</ele></trkpt>
    <trkpt lat="37.079833" lon="-118.461050"><ele>3411.5</ele></trkpt>
    <trkpt lat="37.079600" lon="-118.461050"><ele>3411.3</ele></trkpt>
    <trkpt lat="37.079450" lon="-118.461325"><ele>3411.2</ele></trkpt>
    <trkpt lat="37.079300" lon="-118.461600"><ele>3411.7</ele></trkpt>
    <trkpt lat="37.079140" lon="-118.461740"><ele>3413.8</ele></trkpt>
    <trkpt lat="37.078980" lon="-118.461880"><ele>3419.1</ele></trkpt>
    <trkpt lat="37.078820" lon="-118.462020"><ele>3426.8</ele></trkpt>
    <trkpt lat="37.078660" lon="-118.462160"><ele>3440.2</ele></trkpt>
    <trkpt lat="37.078500" lon="-118.462300"><ele>3456.2</ele></trkpt>
    <trkpt lat="37.078350" lon="-118.462467"><ele>3474.9</ele></trkpt>
    <trkpt lat="37.078200" lon="-118.462633"><ele>3496.7</ele></trkpt>
    <trkpt lat="37.078050" lon="-118.462800"><ele>3521.6</ele></trkpt>
    <trkpt lat="37.077900" lon="-118.462967"><ele>3543.0</ele></trkpt>
    <trkpt lat="37.077750" lon="-118.463133"><ele>3561.6</ele></trkpt>
    <trkpt lat="37.077600" lon="-118.463300"><ele>3575.9</ele></trkpt>
    <trkpt lat="37.077440" lon="-118.463480"><ele>3595.5</ele></trkpt>
    <trkpt lat="37.077280" lon="-118.463660"><ele>3608.3</ele></trkpt>
    <trkpt lat="37.077120" lon="-118.463840"><ele>3619.0</ele></trkpt>
    <trkpt lat="37.076960" lon="-118.464020"><ele>3631.0</ele></trkpt>
    <trkpt lat="37.076800" lon="-118.464200"><ele>3643.2</ele></trkpt>
    <trkpt lat="37.076633" lon="-118.464350"><ele>3659.9</ele></trkpt>
    <trkpt lat="37.076467" lon="-118.464500"><ele>3678.6</ele></trkpt>
    <trkpt lat="37.076300" lon="-118.464650"><ele>3687.6</ele></trkpt>
    <trkpt lat="37.076133" lon="-118.464800"><ele>3690.8</ele></trkpt>
    <trkpt lat="37.075967" lon="-118.464950"><ele>3690.1</ele></trkpt>
    <trkpt lat="37.075800" lon="-118.465100"><ele>3691.6</ele></trkpt>
    <trkpt lat="37.075633" lon="-118.465217"><ele>3697.8</ele></trkpt>
    <trkpt lat="37.075467" lon="-118.465333"><ele>3703.7</ele></trkpt>
    <trkpt lat="37.075300" lon="-118.465450"><ele>3708.7</ele></trkpt>
    <trkpt lat="37.075133" lon="-118.465567"><ele>3715.0</ele></trkpt>
    <trkpt lat="37.074967" lon="-118.465683"><ele>3718.0</ele></trkpt>
    <trkpt lat="37.074800" lon="-118.465800"><ele>3723.0</ele></trkpt>
    <trkpt lat="37.074600" lon="-118.465925"><ele>3730.9</ele></trkpt>
    <trkpt lat="37.074400" lon="-118.466050"><ele>3742.2</ele></trkpt>
    <trkpt lat="37.074200" lon="-118.466175"><ele>3753.8</ele></trkpt>
    <trkpt lat="37.074000" lon="-118.466300"><ele>3765.8</ele></trkpt>
    <trkpt lat="37.073800" lon="-118.466433"><ele>3776.3</ele></trkpt>
    <trkpt lat="37.073600" lon="-118.466567"><ele>3791.0</ele></trkpt>
    <trkpt lat="37.073400" lon="-118.466700"><ele>3807.1</ele></trkpt>
    <trkpt lat="37.073250" lon="-118.466825"><ele>3821.9</ele></trkpt>
    <trkpt lat="37.073100" lon="-118.466950"><ele>3869.5</ele></trkpt>
    <trkpt lat="37.073250" lon="-118.467300"><ele>3902.8</ele></trkpt>
    <trkpt lat="37.073150" lon="-118.467700"><ele>3921.8</ele></trkpt>
    <trkpt lat="37.072900" lon="-118.467950"><ele>3955.4</ele></trkpt>
    <trkpt lat="37.072725" lon="-118.468005"><ele>3975.1</ele></trkpt>
    <trkpt lat="37.072550" lon="-118.468060"><ele>3994.6</ele></trkpt>
    <trkpt lat="37.072230" lon="-118.468130"><ele>4028.3</ele></trkpt>
    <trkpt lat="37.071970" lon="-118.468250"><ele>4057.4</ele></trkpt>
    <trkpt lat="37.071750" lon="-118.468410"><ele>4089.4</ele></trkpt>
    <trkpt lat="37.071520" lon="-118.468520"><ele>4117.6</ele></trkpt>
    <trkpt lat="37.071385" lon="-118.468735"><ele>4145.0</ele></trkpt>
    <trkpt lat="37.071250" lon="-118.468950"><ele>4172.7</ele></trkpt>
    <trkpt lat="37.071000" lon="-118.469150"><ele>4217.5</ele></trkpt>
    <trkpt lat="37.070850" lon="-118.469280"><ele>4234.2</ele></trkpt>
    <trkpt lat="37.070680" lon="-118.469360"><ele>4261.7</ele></trkpt>
    <trkpt lat="37.070550" lon="-118.469390"><ele>4277.9</ele></trkpt>
  </trkseg></trk>
</gpx>
